     2              NAVIGATION DATA                         RINEX VERSION / TYPE
CCRINEXN V1.6.0 UX  CDDIS               05-JUN-14 17:31     PGM / RUN BY / DATE 
IGS BROADCAST EPHEMERIS FILE                                COMMENT             
    0.1025D-08  0.2235D-08 -0.5960D-07 -0.1192D-06          ION ALPHA           
    0.9626D+05  0.1311D+06 -0.6554D+05 -0.5898D+06          ION BETA            
    0.000000000000D+00-0.799360577730D-14   503808     1795 DELTA-UTC: A0,A1,T,W
    16                                                      LEAP SECONDS        
                                                            END OF HEADER       
16 14  6  4  0  0  0.0-0.215032603592D-03 0.204636307899D-11 0.000000000000D+00
    0.950000000000D+02 0.146875000000D+01 0.411159983606D-08-0.186161400157D+01
   -0.234693288803D-06 0.773704308085D-02 0.431574881077D-05 0.515360014915D+04
    0.259200000000D+06 0.614672899246D-07 0.242146575922D+01-0.108033418655D-06
    0.988242071586D+00 0.310843750000D+03 0.214244788658D+00-0.798390399022D-08
    0.277868717205D-09 0.100000000000D+01 0.179500000000D+04 0.000000000000D+00
    0.200000000000D+01 0.000000000000D+00-0.102445483208D-07 0.950000000000D+02
    0.252018000000D+06 0.400000000000D+01 0.000000000000D+00 0.000000000000D+00
17 14  6  4  0  0  0.0-0.985087826848D-04-0.295585778076D-11 0.000000000000D+00
    0.115000000000D+03-0.796250000000D+02 0.448875840338D-08-0.279523991237D+01
   -0.403076410294D-05 0.929700699635D-02 0.696070492268D-05 0.515360250664D+04
    0.259200000000D+06 0.197440385819D-06-0.283025117151D+01-0.111758708954D-06
    0.969029242220D+00 0.246656250000D+03-0.209775558858D+01-0.796961768085D-08
   -0.964325882329D-10 0.100000000000D+01 0.179500000000D+04 0.000000000000D+00
    0.200000000000D+01 0.000000000000D+00-0.102445483208D-07 0.115000000000D+03
    0.258270000000D+06 0.400000000000D+01 0.000000000000D+00 0.000000000000D+00
18 14  6  4  0  0  0.0 0.323317945003D-03 0.227373675443D-11 0.000000000000D+00
    0.390000000000D+02 0.298437500000D+02 0.551487257372D-08-0.120991588302D+01
    0.164285302162D-05 0.153425624594D-01 0.614672899246D-05 0.515369424057D+04
    0.259200000000D+06 0.216066837311D-06-0.788024252030D+00 0.348314642906D-06
    0.925677666213D+00 0.243062500000D+03-0.203398769902D+01-0.856428530829D-08
   -0.689314426998D-10 0.100000000000D+01 0.179500000000D+04 0.000000000000D+00
    0.200000000000D+01 0.000000000000D+00-0.111758708954D-07 0.390000000000D+02
    0.252018000000D+06 0.400000000000D+01 0.000000000000D+00 0.000000000000D+00
19 14  6  4  0  0  0.0-0.460686627775D-03-0.216004991671D-11 0.000000000000D+00
    0.330000000000D+02-0.760312500000D+02 0.448018661776D-08 0.269974460222D+01
   -0.396743416786D-05 0.104040575679D-01 0.761821866035D-05 0.515362325287D+04
    0.259200000000D+06-0.171363353729D-06-0.277948430806D+01-0.119209289551D-06
    0.966131780821D+00 0.236437500000D+03 0.437887680511D+00-0.785139847083D-08
   -0.489306095849D-10 0.100000000000D+01 0.179500000000D+04 0.000000000000D+00
    0.200000000000D+01 0.000000000000D+00-0.149011611938D-07 0.330000000000D+02
    0.255510000000D+06 0.400000000000D+01 0.000000000000D+00 0.000000000000D+00
20 14  6  4  0  0  0.0 0.196278095245D-03 0.397903932026D-11 0.000000000000D+00
    0.100000000000D+03 0.290000000000D+02 0.558558980509D-08-0.692745131912D+00
    0.149384140968D-05 0.575518910773D-02 0.624544918537D-05 0.515378219223D+04
    0.259200000000D+06-0.391155481338D-07-0.841097764241D+00 0.819563865662D-07
    0.926645682032D+00 0.239593750000D+03 0.133012401812D+01-0.866643242027D-08
    0.357157734196D-11 0.100000000000D+01 0.179500000000D+04 0.000000000000D+00
    0.200000000000D+01 0.000000000000D+00-0.838190317154D-08 0.100000000000D+03
    0.253488000000D+06 0.400000000000D+01 0.000000000000D+00 0.000000000000D+00
22 14  6  4  0  0  0.0 0.239314977080D-03 0.272848410532D-11 0.000000000000D+00
    0.360000000000D+02 0.263125000000D+02 0.545558438984D-08-0.176991693585D+01
    0.129826366901D-05 0.727394910064D-02 0.624917447567D-05 0.515372281838D+04
    0.259200000000D+06 0.158324837685D-06-0.786153808862D+00-0.223517417908D-07
    0.923456386031D+00 0.240125000000D+03-0.205489171728D+01-0.840499295884D-08
   -0.275011455331D-10 0.100000000000D+01 0.179500000000D+04 0.000000000000D+00
    0.200000000000D+01 0.000000000000D+00-0.172294676304D-07 0.360000000000D+02
    0.252018000000D+06 0.400000000000D+01 0.000000000000D+00 0.000000000000D+00
23 14  6  4  0  0  0.0-0.258595682681D-04-0.306954461848D-11 0.000000000000D+00
    0.320000000000D+02 0.481250000000D+01 0.463162149706D-08 0.235963300453D+01
    0.193715095520D-06 0.943429057952D-02 0.785104930401D-05 0.515378053474D+04
    0.259200000000D+06-0.184401869774D-06 0.277733177479D+00-0.167638063431D-07
    0.952075269551D+00 0.225406250000D+03-0.278244627537D+01-0.804462080503D-08
   -0.355729103259D-09 0.100000000000D+01 0.179500000000D+04 0.000000000000D+00
    0.200000000000D+01 0.000000000000D+00-0.200234353542D-07 0.320000000000D+02
    0.252018000000D+06 0.400000000000D+01 0.000000000000D+00 0.000000000000D+00
24 14  6  4  0  0  0.0-0.294889323413D-04-0.568434188608D-12 0.000000000000D+00
    0.700000000000D+02 0.420000000000D+02 0.437803950578D-08 0.152473704303D+01
    0.205263495445D-05 0.208075728733D-02 0.864267349243D-05 0.515373524284D+04
    0.259200000000D+06-0.130385160446D-07 0.130462104332D+01 0.931322574616D-08
    0.956644587378D+00 0.208406250000D+03 0.352154918632D+00-0.805676416800D-08
    0.403588239642D-10 0.100000000000D+01 0.179500000000D+04 0.000000000000D+00
    0.200000000000D+01 0.000000000000D+00 0.279396772385D-08 0.700000000000D+02
    0.252018000000D+06 0.400000000000D+01 0.000000000000D+00 0.000000000000D+00
25 14  6  4  0  0  0.0 0.245897099376D-04 0.341060513165D-12 0.000000000000D+00
    0.690000000000D+02 0.128750000000D+02 0.442232706482D-08-0.497902485923D+00
    0.813975930214D-06 0.363816763274D-02 0.471621751785D-05 0.515360102844D+04
    0.259200000000D+06 0.149011611938D-07 0.236039461138D+01 0.372529029846D-07
    0.976311853228D+00 0.299406250000D+03 0.689791143358D+00-0.815426822943D-08
    0.231081054025D-09 0.100000000000D+01 0.179500000000D+04 0.000000000000D+00
    0.200000000000D+01 0.000000000000D+00 0.512227416039D-08 0.690000000000D+02
    0.253386000000D+06 0.400000000000D+01 0.000000000000D+00 0.000000000000D+00
26 14  6  4  0  0  0.0 0.580055639148D-04-0.120508047985D-10 0.000000000000D+00
    0.700000000000D+01 0.140625000000D+01 0.399302346831D-08 0.224781382978D+01
   -0.173225998878D-06 0.213325740769D-01 0.770203769207D-05 0.515369181824D+04
    0.259200000000D+06 0.292435288429D-06 0.366298728075D+00-0.275671482086D-06
    0.975239667401D+00 0.234343750000D+03 0.128550914945D+01-0.754638576583D-08
   -0.313584490624D-09 0.100000000000D+01 0.179500000000D+04 0.000000000000D+00
    0.200000000000D+01 0.000000000000D+00-0.605359673500D-08 0.700000000000D+01
    0.254640000000D+06 0.400000000000D+01 0.000000000000D+00 0.000000000000D+00
27 14  6  4  0  0  0.0-0.126142986119D-04 0.250111042988D-11 0.000000000000D+00
    0.450000000000D+02-0.698750000000D+02 0.457554773279D-08-0.276738309506D+01
   -0.365078449249D-05 0.130071281455D-02 0.690482556820D-05 0.515367707062D+04
    0.259200000000D+06-0.819563865662D-07-0.287581850225D+01-0.242143869400D-07
    0.963791053377D+00 0.249468750000D+03 0.171828748763D+00-0.805676416800D-08
   -0.707172313708D-10 0.100000000000D+01 0.179500000000D+04 0.000000000000D+00
    0.200000000000D+01 0.000000000000D+00 0.186264514923D-08 0.450000000000D+02
    0.258276000000D+06 0.400000000000D+01 0.000000000000D+00 0.000000000000D+00
28 14  6  4  0  0  0.0 0.359684694558D-03 0.272848410532D-11 0.000000000000D+00
    0.780000000000D+02 0.706250000000D+01 0.406481217289D-08-0.196249914665D+01
    0.672414898872D-06 0.191382770427D-01 0.391714274883D-05 0.515367259979D+04
    0.259200000000D+06 0.311061739922D-06 0.242723822769D+01 0.154599547386D-06
    0.986773386684D+00 0.311218750000D+03-0.171449519289D+01-0.778818155188D-08
    0.301083969927D-09 0.100000000000D+01 0.179500000000D+04 0.000000000000D+00
    0.280000000000D+01 0.000000000000D+00-0.107102096081D-07 0.780000000000D+02
    0.258270000000D+06 0.400000000000D+01 0.000000000000D+00 0.000000000000D+00
29 14  6  4  0  0  0.0 0.537208747119D-03 0.272848410532D-11 0.000000000000D+00
    0.440000000000D+02-0.729375000000D+02 0.456626159107D-08-0.743079831800D-01
   -0.374764204025D-05 0.154467439279D-02 0.653229653835D-05 0.515369830132D+04
    0.259200000000D+06 0.260770320892D-07-0.282118697644D+01-0.149011611938D-07
    0.969764857410D+00 0.260812500000D+03-0.846479055730D+00-0.809176547989D-08
   -0.353586153412D-10 0.100000000000D+01 0.179500000000D+04 0.000000000000D+00
    0.200000000000D+01 0.000000000000D+00-0.977888703346D-08 0.440000000000D+02
    0.259200000000D+06 0.000000000000D+00 0.000000000000D+00 0.000000000000D+00
30 14  6  4  0  0  0.0-0.207335688174D-04-0.602540239925D-11 0.000000000000D+00
    0.190000000000D+02 0.578125000000D+02 0.430946522081D-08 0.972150243354D+00
    0.299513339996D-05 0.749842030927D-03 0.811181962490D-05 0.515370139694D+04
    0.259200000000D+06 0.391155481338D-07 0.139380866911D+01 0.260770320892D-07
    0.958823472195D+00 0.222093750000D+03 0.273064532049D+01-0.803140596887D-08
    0.143934566881D-09 0.100000000000D+01 0.179500000000D+04 0.000000000000D+00
    0.200000000000D+01 0.000000000000D+00 0.325962901115D-08 0.190000000000D+02
    0.258360000000D+06 0.400000000000D+01 0.000000000000D+00 0.000000000000D+00
